[{"OBJECT_NAME":"STARLINK-36866","OBJECT_ID":"2026-035S","EPOCH":"2026-03-22T18:25:47.106912","MEAN_MOTION":15.75297627,"ECCENTRICITY":0.0001901,"INCLINATION":97.2861,"RA_OF_ASC_NODE":14.8282,"ARG_OF_PERICENTER":121.1706,"MEAN_ANOMALY":238.9746,"EPHEMERIS_TYPE":0,"CLASSIFICATION_TYPE":"U","NORAD_CAT_ID":67895,"ELEMENT_SET_NO":999,"REV_AT_EPOCH":590,"BSTAR":0.0017200713,"MEAN_MOTION_DOT":0.00265814,"MEAN_MOTION_DDOT":0},{"OBJECT_NAME":"STARLINK-36877","OBJECT_ID":"2026-035T","EPOCH":"2026-03-23T04:31:15.321792","MEAN_MOTION":15.79573751,"ECCENTRICITY":0.00024663,"INCLINATION":97.2885,"RA_OF_ASC_NODE":15.3286,"ARG_OF_PERICENTER":62.6728,"MEAN_ANOMALY":297.479,"EPHEMERIS_TYPE":0,"CLASSIFICATION_TYPE":"U","NORAD_CAT_ID":67896,"ELEMENT_SET_NO":999,"REV_AT_EPOCH":597,"BSTAR":-0.0048286386,"MEAN_MOTION_DOT":-0.00798571,"MEAN_MOTION_DDOT":0},{"OBJECT_NAME":"STARLINK-36870","OBJECT_ID":"2026-035U","EPOCH":"2026-03-23T06:00:00.999648","MEAN_MOTION":15.75119011,"ECCENTRICITY":0.00015303,"INCLINATION":97.2859,"RA_OF_ASC_NODE":15.3793,"ARG_OF_PERICENTER":113.2927,"MEAN_ANOMALY":205.0089,"EPHEMERIS_TYPE":0,"CLASSIFICATION_TYPE":"U","NORAD_CAT_ID":67897,"ELEMENT_SET_NO":999,"REV_AT_EPOCH":594,"BSTAR":0.00016080265,"MEAN_MOTION_DOT":0.00023849,"MEAN_MOTION_DDOT":0},{"OBJECT_NAME":"STARLINK-36810","OBJECT_ID":"2026-035V","EPOCH":"2026-03-23T06:23:52.338336","MEAN_MOTION":15.75234393,"ECCENTRICITY":9.256e-5,"INCLINATION":97.2855,"RA_OF_ASC_NODE":15.3728,"ARG_OF_PERICENTER":50.3636,"MEAN_ANOMALY":309.7711,"EPHEMERIS_TYPE":0,"CLASSIFICATION_TYPE":"U","NORAD_CAT_ID":67898,"ELEMENT_SET_NO":999,"REV_AT_EPOCH":598,"BSTAR":0.0021172339,"MEAN_MOTION_DOT":0.00328776,"MEAN_MOTION_DDOT":0},{"OBJECT_NAME":"STARLINK-36878","OBJECT_ID":"2026-035W","EPOCH":"2026-03-23T01:22:09.414624","MEAN_MOTION":15.8101325,"ECCENTRICITY":0.00022106,"INCLINATION":97.2888,"RA_OF_ASC_NODE":15.1985,"ARG_OF_PERICENTER":104.225,"MEAN_ANOMALY":255.9264,"EPHEMERIS_TYPE":0,"CLASSIFICATION_TYPE":"U","NORAD_CAT_ID":67899,"ELEMENT_SET_NO":999,"REV_AT_EPOCH":595,"BSTAR":0.0024450854,"MEAN_MOTION_DOT":0.0050058,"MEAN_MOTION_DDOT":0},{"OBJECT_NAME":"STARLINK-36361","OBJECT_ID":"2026-035X","EPOCH":"2026-03-23T01:21:04.199040","MEAN_MOTION":15.81024448,"ECCENTRICITY":0.00035535,"INCLINATION":97.2879,"RA_OF_ASC_NODE":15.2,"ARG_OF_PERICENTER":115.6616,"MEAN_ANOMALY":244.5019,"EPHEMERIS_TYPE":0,"CLASSIFICATION_TYPE":"U","NORAD_CAT_ID":67900,"ELEMENT_SET_NO":999,"REV_AT_EPOCH":595,"BSTAR":0.0026467331,"MEAN_MOTION_DOT":0.0054496,"MEAN_MOTION_DDOT":0},{"OBJECT_NAME":"STARLINK-36336","OBJECT_ID":"2026-035Y","EPOCH":"2026-03-23T06:15:13.598784","MEAN_MOTION":15.75284975,"ECCENTRICITY":2.941e-5,"INCLINATION":97.2851,"RA_OF_ASC_NODE":15.3828,"ARG_OF_PERICENTER":340.815,"MEAN_ANOMALY":19.3104,"EPHEMERIS_TYPE":0,"CLASSIFICATION_TYPE":"U","NORAD_CAT_ID":67901,"ELEMENT_SET_NO":999,"REV_AT_EPOCH":598,"BSTAR":0.0026875645,"MEAN_MOTION_DOT":0.00423037,"MEAN_MOTION_DDOT":0},{"OBJECT_NAME":"STARLINK-36876","OBJECT_ID":"2026-035Z","EPOCH":"2026-03-23T06:00:00.999648","MEAN_MOTION":15.75155396,"ECCENTRICITY":0.0001224,"INCLINATION":97.2853,"RA_OF_ASC_NODE":15.4037,"ARG_OF_PERICENTER":100.6064,"MEAN_ANOMALY":269.6226,"EPHEMERIS_TYPE":0,"CLASSIFICATION_TYPE":"U","NORAD_CAT_ID":67902,"ELEMENT_SET_NO":999,"REV_AT_EPOCH":594,"BSTAR":0.00051874956,"MEAN_MOTION_DOT":0.00077836,"MEAN_MOTION_DDOT":0},{"OBJECT_NAME":"STARLINK-36257","OBJECT_ID":"2026-035AA","EPOCH":"2026-03-22T18:27:49.097664","MEAN_MOTION":15.75291798,"ECCENTRICITY":0.00013606,"INCLINATION":97.2873,"RA_OF_ASC_NODE":14.8277,"ARG_OF_PERICENTER":101.7871,"MEAN_ANOMALY":258.3547,"EPHEMERIS_TYPE":0,"CLASSIFICATION_TYPE":"U","NORAD_CAT_ID":67903,"ELEMENT_SET_NO":999,"REV_AT_EPOCH":590,"BSTAR":0.0017123515,"MEAN_MOTION_DOT":0.00264511,"MEAN_MOTION_DDOT":0},{"OBJECT_NAME":"STARLINK-36814","OBJECT_ID":"2026-036A","EPOCH":"2026-03-22T14:44:56.613696","MEAN_MOTION":15.50597032,"ECCENTRICITY":0.00018134,"INCLINATION":43.0003,"RA_OF_ASC_NODE":173.606,"ARG_OF_PERICENTER":246.0294,"MEAN_ANOMALY":114.0377,"EPHEMERIS_TYPE":0,"CLASSIFICATION_TYPE":"U","NORAD_CAT_ID":67904,"ELEMENT_SET_NO":999,"REV_AT_EPOCH":568,"BSTAR":0.0015665001,"MEAN_MOTION_DOT":0.00092713,"MEAN_MOTION_DDOT":0},{"OBJECT_NAME":"STARLINK-36729","OBJECT_ID":"2026-036B","EPOCH":"2026-03-23T06:00:00.999648","MEAN_MOTION":15.42919725,"ECCENTRICITY":0.00011717,"INCLINATION":42.9999,"RA_OF_ASC_NODE":169.3046,"ARG_OF_PERICENTER":290.2327,"MEAN_ANOMALY":258.2351,"EPHEMERIS_TYPE":0,"CLASSIFICATION_TYPE":"U","NORAD_CAT_ID":67905,"ELEMENT_SET_NO":999,"REV_AT_EPOCH":582,"BSTAR":-0.047602727,"MEAN_MOTION_DOT":-0.01918016,"MEAN_MOTION_DDOT":0},{"OBJECT_NAME":"STARLINK-36763","OBJECT_ID":"2026-036C","EPOCH":"2026-03-23T06:00:00.999648","MEAN_MOTION":15.41439375,"ECCENTRICITY":0.00011051,"INCLINATION":42.9999,"RA_OF_ASC_NODE":169.2567,"ARG_OF_PERICENTER":273.8676,"MEAN_ANOMALY":293.6762,"EPHEMERIS_TYPE":0,"CLASSIFICATION_TYPE":"U","NORAD_CAT_ID":67906,"ELEMENT_SET_NO":999,"REV_AT_EPOCH":582,"BSTAR":-0.050168124,"MEAN_MOTION_DOT":-0.01922116,"MEAN_MOTION_DDOT":0},{"OBJECT_NAME":"STARLINK-36742","OBJECT_ID":"2026-036D","EPOCH":"2026-03-23T06:00:00.999648","MEAN_MOTION":15.44605195,"ECCENTRICITY":9.801e-5,"INCLINATION":42.9984,"RA_OF_ASC_NODE":169.2575,"ARG_OF_PERICENTER":283.2007,"MEAN_ANOMALY":284.3516,"EPHEMERIS_TYPE":0,"CLASSIFICATION_TYPE":"U","NORAD_CAT_ID":67907,"ELEMENT_SET_NO":999,"REV_AT_EPOCH":582,"BSTAR":-0.045340275,"MEAN_MOTION_DOT":-0.01933393,"MEAN_MOTION_DDOT":0},{"OBJECT_NAME":"STARLINK-36827","OBJECT_ID":"2026-036E","EPOCH":"2026-03-23T06:00:00.999648","MEAN_MOTION":15.39244601,"ECCENTRICITY":0.00011642,"INCLINATION":42.9991,"RA_OF_ASC_NODE":169.0422,"ARG_OF_PERICENTER":260.6931,"MEAN_ANOMALY":33.8972,"EPHEMERIS_TYPE":0,"CLASSIFICATION_TYPE":"U","NORAD_CAT_ID":67908,"ELEMENT_SET_NO":999,"REV_AT_EPOCH":582,"BSTAR":-0.051540291,"MEAN_MOTION_DOT":-0.01843824,"MEAN_MOTION_DDOT":0},{"OBJECT_NAME":"STARLINK-36822","OBJECT_ID":"2026-036F","EPOCH":"2026-03-21T15:50:21.543648","MEAN_MOTION":15.50685632,"ECCENTRICITY":1.791e-5,"INCLINATION":42.9968,"RA_OF_ASC_NODE":178.457,"ARG_OF_PERICENTER":89.2305,"MEAN_ANOMALY":270.8576,"EPHEMERIS_TYPE":0,"CLASSIFICATION_TYPE":"U","NORAD_CAT_ID":67909,"ELEMENT_SET_NO":999,"REV_AT_EPOCH":554,"BSTAR":0.0015159786,"MEAN_MOTION_DOT":0.00089964,"MEAN_MOTION_DDOT":0},{"OBJECT_NAME":"STARLINK-36847","OBJECT_ID":"2026-036G","EPOCH":"2026-03-22T13:33:53.255808","MEAN_MOTION":15.50570646,"ECCENTRICITY":9.254e-5,"INCLINATION":43.0008,"RA_OF_ASC_NODE":173.2112,"ARG_OF_PERICENTER":249.3874,"MEAN_ANOMALY":110.6887,"EPHEMERIS_TYPE":0,"CLASSIFICATION_TYPE":"U","NORAD_CAT_ID":67910,"ELEMENT_SET_NO":999,"REV_AT_EPOCH":568,"BSTAR":0.001448275,"MEAN_MOTION_DOT":0.00085529,"MEAN_MOTION_DDOT":0}]
